[{"OBJECT_NAME":"STARLINK-11338 [DTC]","OBJECT_ID":"2024-184C","EPOCH":"2026-03-02T00:41:02.915808","MEAN_MOTION":15.6970166,"ECCENTRICITY":0.0001016,"INCLINATION":53.1584,"RA_OF_ASC_NODE":274.0581,"ARG_OF_PERICENTER":109.8112,"MEAN_ANOMALY":250.3015,"EPHEMERIS_TYPE":0,"CLASSIFICATION_TYPE":"U","NORAD_CAT_ID":61534,"ELEMENT_SET_NO":999,"REV_AT_EPOCH":7921,"BSTAR":-5.8434e-6,"MEAN_MOTION_DOT":-1.296e-5,"MEAN_MOTION_DDOT":0},{"OBJECT_NAME":"STARLINK-11362 [DTC]","OBJECT_ID":"2024-184D","EPOCH":"2026-03-02T00:19:50.798496","MEAN_MOTION":15.69717746,"ECCENTRICITY":0.0001196,"INCLINATION":53.1581,"RA_OF_ASC_NODE":273.9609,"ARG_OF_PERICENTER":118.8961,"MEAN_ANOMALY":241.2177,"EPHEMERIS_TYPE":0,"CLASSIFICATION_TYPE":"U","NORAD_CAT_ID":61535,"ELEMENT_SET_NO":999,"REV_AT_EPOCH":7921,"BSTAR":-2.3026e-5,"MEAN_MOTION_DOT":-3.378e-5,"MEAN_MOTION_DDOT":0},{"OBJECT_NAME":"STARLINK-11295 [DTC]","OBJECT_ID":"2024-184E","EPOCH":"2026-03-02T00:26:54.733056","MEAN_MOTION":15.69707788,"ECCENTRICITY":8.62e-5,"INCLINATION":53.1578,"RA_OF_ASC_NODE":273.9943,"ARG_OF_PERICENTER":123.0965,"MEAN_ANOMALY":237.0136,"EPHEMERIS_TYPE":0,"CLASSIFICATION_TYPE":"U","NORAD_CAT_ID":61536,"ELEMENT_SET_NO":999,"REV_AT_EPOCH":7921,"BSTAR":8.7226e-6,"MEAN_MOTION_DOT":4.69e-6,"MEAN_MOTION_DDOT":0},{"OBJECT_NAME":"STARLINK-11331 [DTC]","OBJECT_ID":"2024-184F","EPOCH":"2026-03-02T04:00:01.999584","MEAN_MOTION":15.82670787,"ECCENTRICITY":0.0006562,"INCLINATION":53.1501,"RA_OF_ASC_NODE":272.809,"ARG_OF_PERICENTER":277.9313,"MEAN_ANOMALY":59.7218,"EPHEMERIS_TYPE":0,"CLASSIFICATION_TYPE":"U","NORAD_CAT_ID":61537,"ELEMENT_SET_NO":999,"REV_AT_EPOCH":601,"BSTAR":0.0060673,"MEAN_MOTION_DOT":0.01472184,"MEAN_MOTION_DDOT":0},{"OBJECT_NAME":"STARLINK-11325 [DTC]","OBJECT_ID":"2024-184G","EPOCH":"2026-03-02T00:05:41.489952","MEAN_MOTION":15.6978795,"ECCENTRICITY":5.32e-5,"INCLINATION":53.1577,"RA_OF_ASC_NODE":273.8945,"ARG_OF_PERICENTER":219.8385,"MEAN_ANOMALY":140.2594,"EPHEMERIS_TYPE":0,"CLASSIFICATION_TYPE":"U","NORAD_CAT_ID":61538,"ELEMENT_SET_NO":999,"REV_AT_EPOCH":7921,"BSTAR":-0.00013203,"MEAN_MOTION_DOT":-0.00016602,"MEAN_MOTION_DDOT":0},{"OBJECT_NAME":"STARLINK-11332 [DTC]","OBJECT_ID":"2024-184H","EPOCH":"2026-03-01T23:58:41.673216","MEAN_MOTION":15.69683118,"ECCENTRICITY":0.00014,"INCLINATION":53.1581,"RA_OF_ASC_NODE":273.8847,"ARG_OF_PERICENTER":77.3021,"MEAN_ANOMALY":282.8153,"EPHEMERIS_TYPE":0,"CLASSIFICATION_TYPE":"U","NORAD_CAT_ID":61539,"ELEMENT_SET_NO":999,"REV_AT_EPOCH":7921,"BSTAR":-1.3695e-5,"MEAN_MOTION_DOT":-2.246e-5,"MEAN_MOTION_DDOT":0},{"OBJECT_NAME":"STARLINK-11350 [DTC]","OBJECT_ID":"2024-184J","EPOCH":"2026-03-01T23:51:35.323776","MEAN_MOTION":15.69712634,"ECCENTRICITY":5.35e-5,"INCLINATION":53.1568,"RA_OF_ASC_NODE":273.8297,"ARG_OF_PERICENTER":110.389,"MEAN_ANOMALY":249.7185,"EPHEMERIS_TYPE":0,"CLASSIFICATION_TYPE":"U","NORAD_CAT_ID":61540,"ELEMENT_SET_NO":999,"REV_AT_EPOCH":7921,"BSTAR":6.1058e-6,"MEAN_MOTION_DOT":1.52e-6,"MEAN_MOTION_DDOT":0},{"OBJECT_NAME":"STARLINK-11357 [DTC]","OBJECT_ID":"2024-184K","EPOCH":"2026-03-01T23:44:39.356160","MEAN_MOTION":15.69753831,"ECCENTRICITY":3.8e-5,"INCLINATION":53.1587,"RA_OF_ASC_NODE":274.5335,"ARG_OF_PERICENTER":82.7574,"MEAN_ANOMALY":277.3487,"EPHEMERIS_TYPE":0,"CLASSIFICATION_TYPE":"U","NORAD_CAT_ID":61541,"ELEMENT_SET_NO":999,"REV_AT_EPOCH":7920,"BSTAR":-6.3194e-5,"MEAN_MOTION_DOT":-8.25e-5,"MEAN_MOTION_DDOT":0},{"OBJECT_NAME":"STARLINK-11322 [DTC]","OBJECT_ID":"2024-184L","EPOCH":"2026-03-01T23:37:36.622560","MEAN_MOTION":15.69711742,"ECCENTRICITY":6.99e-5,"INCLINATION":53.1557,"RA_OF_ASC_NODE":274.5014,"ARG_OF_PERICENTER":83.967,"MEAN_ANOMALY":276.1427,"EPHEMERIS_TYPE":0,"CLASSIFICATION_TYPE":"U","NORAD_CAT_ID":61542,"ELEMENT_SET_NO":999,"REV_AT_EPOCH":8026,"BSTAR":2.0953e-5,"MEAN_MOTION_DOT":1.951e-5,"MEAN_MOTION_DDOT":0},{"OBJECT_NAME":"STARLINK-11364 [DTC]","OBJECT_ID":"2024-184M","EPOCH":"2026-03-01T23:30:33.229728","MEAN_MOTION":15.69703563,"ECCENTRICITY":0.0001458,"INCLINATION":53.1587,"RA_OF_ASC_NODE":274.4632,"ARG_OF_PERICENTER":106.4897,"MEAN_ANOMALY":253.6282,"EPHEMERIS_TYPE":0,"CLASSIFICATION_TYPE":"U","NORAD_CAT_ID":61543,"ELEMENT_SET_NO":999,"REV_AT_EPOCH":7920,"BSTAR":6.4078e-7,"MEAN_MOTION_DOT":-5.12e-6,"MEAN_MOTION_DDOT":0},{"OBJECT_NAME":"STARLINK-11349 [DTC]","OBJECT_ID":"2024-184N","EPOCH":"2026-03-01T23:23:29.218272","MEAN_MOTION":15.69707322,"ECCENTRICITY":9.81e-5,"INCLINATION":53.1584,"RA_OF_ASC_NODE":274.4327,"ARG_OF_PERICENTER":176.9595,"MEAN_ANOMALY":183.1429,"EPHEMERIS_TYPE":0,"CLASSIFICATION_TYPE":"U","NORAD_CAT_ID":61544,"ELEMENT_SET_NO":999,"REV_AT_EPOCH":7920,"BSTAR":1.158e-5,"MEAN_MOTION_DOT":8.15e-6,"MEAN_MOTION_DDOT":0},{"OBJECT_NAME":"STARLINK-32406","OBJECT_ID":"2024-184P","EPOCH":"2026-03-02T03:57:07.399008","MEAN_MOTION":15.30196977,"ECCENTRICITY":0.0001298,"INCLINATION":53.1615,"RA_OF_ASC_NODE":48.9798,"ARG_OF_PERICENTER":90.9924,"MEAN_ANOMALY":269.1225,"EPHEMERIS_TYPE":0,"CLASSIFICATION_TYPE":"U","NORAD_CAT_ID":61545,"ELEMENT_SET_NO":999,"REV_AT_EPOCH":7735,"BSTAR":2.3406e-5,"MEAN_MOTION_DOT":3.34e-6,"MEAN_MOTION_DDOT":0},{"OBJECT_NAME":"STARLINK-32445","OBJECT_ID":"2024-184Q","EPOCH":"2026-03-02T04:15:21.324096","MEAN_MOTION":15.30198656,"ECCENTRICITY":0.0001199,"INCLINATION":53.1608,"RA_OF_ASC_NODE":49.0624,"ARG_OF_PERICENTER":93.4308,"MEAN_ANOMALY":266.683,"EPHEMERIS_TYPE":0,"CLASSIFICATION_TYPE":"U","NORAD_CAT_ID":61546,"ELEMENT_SET_NO":999,"REV_AT_EPOCH":7735,"BSTAR":-3.533e-5,"MEAN_MOTION_DOT":-1.405e-5,"MEAN_MOTION_DDOT":0},{"OBJECT_NAME":"STARLINK-32411","OBJECT_ID":"2024-184R","EPOCH":"2026-03-02T03:52:33.967200","MEAN_MOTION":15.30192424,"ECCENTRICITY":0.0001362,"INCLINATION":53.1613,"RA_OF_ASC_NODE":48.9586,"ARG_OF_PERICENTER":92.3312,"MEAN_ANOMALY":267.7844,"EPHEMERIS_TYPE":0,"CLASSIFICATION_TYPE":"U","NORAD_CAT_ID":61547,"ELEMENT_SET_NO":999,"REV_AT_EPOCH":7735,"BSTAR":1.1758e-5,"MEAN_MOTION_DOT":-1.1e-7,"MEAN_MOTION_DDOT":0},{"OBJECT_NAME":"STARLINK-32424","OBJECT_ID":"2024-184S","EPOCH":"2026-03-02T04:10:47.589024","MEAN_MOTION":15.30216485,"ECCENTRICITY":0.0001206,"INCLINATION":53.161,"RA_OF_ASC_NODE":49.04,"ARG_OF_PERICENTER":76.8581,"MEAN_ANOMALY":283.2554,"EPHEMERIS_TYPE":0,"CLASSIFICATION_TYPE":"U","NORAD_CAT_ID":61548,"ELEMENT_SET_NO":999,"REV_AT_EPOCH":7735,"BSTAR":-0.00014408,"MEAN_MOTION_DOT":-4.626e-5,"MEAN_MOTION_DDOT":0},{"OBJECT_NAME":"STARLINK-32389","OBJECT_ID":"2024-184T","EPOCH":"2026-03-02T03:48:00.246816","MEAN_MOTION":15.3019563,"ECCENTRICITY":0.0001467,"INCLINATION":53.1609,"RA_OF_ASC_NODE":48.9451,"ARG_OF_PERICENTER":90.7161,"MEAN_ANOMALY":269.4008,"EPHEMERIS_TYPE":0,"CLASSIFICATION_TYPE":"U","NORAD_CAT_ID":61549,"ELEMENT_SET_NO":999,"REV_AT_EPOCH":7735,"BSTAR":8.2461e-6,"MEAN_MOTION_DOT":-1.15e-6,"MEAN_MOTION_DDOT":0}]
