STARLINK-11338 [DTC]    
1 61534U 24184C   26061.02850597 -.00001296  00000+0 -58434-5 0  9997
2 61534  53.1584 274.0581 0001016 109.8112 250.3015 15.69701660 79210
STARLINK-11362 [DTC]    
1 61535U 24184D   26061.01378239 -.00003378  00000+0 -23026-4 0  9996
2 61535  53.1581 273.9609 0001196 118.8961 241.2177 15.69717746 79218
STARLINK-11295 [DTC]    
1 61536U 24184E   26061.01868904  .00000469  00000+0  87226-5 0  9999
2 61536  53.1578 273.9943 0000862 123.0965 237.0136 15.69707788 79210
STARLINK-11331 [DTC]    
1 61537U 24184F   26061.16668981  .01472184  00000+0  60673-2 0  9991
2 61537  53.1501 272.8090 0006562 277.9313  59.7218 15.82670787  6018
STARLINK-11325 [DTC]    
1 61538U 24184G   26061.00395243 -.00016602  00000+0 -13203-3 0  9991
2 61538  53.1577 273.8945 0000532 219.8385 140.2594 15.69787950 79218
STARLINK-11332 [DTC]    
1 61539U 24184H   26060.99909344 -.00002246  00000+0 -13695-4 0  9997
2 61539  53.1581 273.8847 0001400  77.3021 282.8153 15.69683118 79219
STARLINK-11350 [DTC]    
1 61540U 24184J   26060.99415884  .00000152  00000+0  61058-5 0  9999
2 61540  53.1568 273.8297 0000535 110.3890 249.7185 15.69712634 79218
STARLINK-11357 [DTC]    
1 61541U 24184K   26060.98934440 -.00008250  00000+0 -63194-4 0  9994
2 61541  53.1587 274.5335 0000380  82.7574 277.3487 15.69753831 79205
STARLINK-11322 [DTC]    
1 61542U 24184L   26060.98445165  .00001951  00000+0  20953-4 0  9991
2 61542  53.1557 274.5014 0000699  83.9670 276.1427 15.69711742 80264
STARLINK-11364 [DTC]    
1 61543U 24184M   26060.97955127 -.00000512  00000+0  64078-6 0  9996
2 61543  53.1587 274.4632 0001458 106.4897 253.6282 15.69703563 79202
STARLINK-11349 [DTC]    
1 61544U 24184N   26060.97464373  .00000815  00000+0  11580-4 0  9998
2 61544  53.1584 274.4327 0000981 176.9595 183.1429 15.69707322 79205
STARLINK-32406          
1 61545U 24184P   26061.16466897  .00000334  00000+0  23406-4 0  9990
2 61545  53.1615  48.9798 0001298  90.9924 269.1225 15.30196977 77359
STARLINK-32445          
1 61546U 24184Q   26061.17733014 -.00001405  00000+0 -35330-4 0  9991
2 61546  53.1608  49.0624 0001199  93.4308 266.6830 15.30198656 77356
STARLINK-32411          
1 61547U 24184R   26061.16150425 -.00000011  00000+0  11758-4 0  9999
2 61547  53.1613  48.9586 0001362  92.3312 267.7844 15.30192424 77357
STARLINK-32424          
1 61548U 24184S   26061.17416191 -.00004626  00000+0 -14408-3 0  9997
2 61548  53.1610  49.0400 0001206  76.8581 283.2554 15.30216485 77359
STARLINK-32389          
1 61549U 24184T   26061.15833619 -.00000115  00000+0  82461-5 0  9998
2 61549  53.1609  48.9451 0001467  90.7161 269.4008 15.30195630 77358
